STARLINK-30209          
1 57307U 23096T   26061.38385295  .07402874  92504-5  21000-2 0  9992
2 57307  42.9575 178.4941 0023126 349.9616  10.0807 16.25821908146595
QIANKUN-1               
1 57422U 23103B   26061.36082837  .00001372  16860-5  22761-5 0  9993
2 57422  96.1975 113.3483 0024992 174.0337 186.1251 16.07672143150134
OBJECT B                
1 57425U 23104B   26061.89426502  .00292015  34214-4  86565-3 0  9994
2 57425  97.2685 150.1833 0001827 317.9791  42.1343 15.92521196146995
SATORO-T2               
1 60477U 24149K   26061.82471123  .11883383  25183-5  50664-3 0  9990
2 60477  97.3532 155.3194 0011602 281.1702  78.8295 16.42460453 86631
RUZAEVKA 390 (RS44S)    
1 61766U 24199AH  26061.62672404  .00844467  34052-3  16494-2 0  9993
2 61766  97.2881 303.4007 0001705 153.2138 206.9229 16.00278810118391
SZ-19 DEB               
1 63801U 24194E   26061.66463880  .00533619  15635-3  46327-3 0  9999
2 63801  41.4596 206.8915 0013629 358.0712   2.0091 16.12111847 48081
UNICORN-2P              
1 63981U 25052BT  26061.66207648  .09021256  24713-5  43615-2 0  9993
2 63981  97.3657 322.3273 0007441 165.4209 194.7296 16.21197985 54085
COSMOS 2591             
1 65267U 25182A   26061.35446049  .00054645  29946-5  13319-3 0  9993
2 65267  96.5930 354.7408 0008337 189.8135 170.2982 15.96311453 30658
COSMOS 2592             
1 65268U 25182B   26061.49549287  .00005446  18682-5  14507-4 0  9998
2 65268  96.5928 354.8400 0005979 186.2450 173.8755 15.96393983 30676
COSMOS 2593             
1 65269U 25182C   26061.51118243  .00019033  19959-5  47123-4 0  9991
2 65269  96.5901 354.8286 0006322 180.6954 179.4316 15.96413093 30670
COSMOS 2594             
1 65270U 25182D   26061.84028427  .00100783  57333-5  24301-3 0  9996
2 65270  96.5895 355.1197 0006614 171.5879 188.5512 15.96445822 30740
ISS OBJECT XK           
1 65731U 98067XK  26061.31228197  .00825722  34643-3  13041-2 0  9990
2 65731  51.6170  85.7436 0006346  46.9692 313.1850 16.03238210 25714
BOTAN                   
1 65942U 98067XP  26061.44192936  .02808540  11845-4  15065-2 0  9998
2 65942  51.6071  87.3174 0005071  45.1501 314.9928 16.19120033 22452
CZ-4B R/B               
1 66989U 25289B   26061.95284444  .01773984  24949-5  76040-3 0  9991
2 66989  97.5043 140.0415 0033421  52.8089 307.6243 16.21221630 13269
ZK-1A R/B               
1 67002U 25292K   26061.90364112  .02644533  26177-5  93492-3 0  9991
2 67002  97.6836 148.5655 0044343  60.7664 299.8048 16.22334330 13019
STARLINK-36772          
1 67721U 26026A   26042.75317130 -.00000725  22934-5  00000+0 0  9999
2 67721  97.2800  95.5280 0003400 259.0800  81.2200 16.07750770    15
